[{"OBJECT_NAME":"NEXTSAT-2","OBJECT_ID":"2023-072A","EPOCH":"2026-03-09T23:10:55.073280","MEAN_MOTION":15.26393087,"ECCENTRICITY":0.00062633,"INCLINATION":97.5306,"RA_OF_ASC_NODE":265.1019,"ARG_OF_PERICENTER":22.4193,"MEAN_ANOMALY":337.7318,"EPHEMERIS_TYPE":0,"CLASSIFICATION_TYPE":"U","NORAD_CAT_ID":56743,"ELEMENT_SET_NO":999,"REV_AT_EPOCH":15445,"BSTAR":0.00056400163,"MEAN_MOTION_DOT":0.00014622,"MEAN_MOTION_DDOT":0},{"OBJECT_NAME":"STARLINK-32514","OBJECT_ID":"2024-210G","EPOCH":"2026-03-09T07:29:58.189920","MEAN_MOTION":15.27598956,"ECCENTRICITY":8.754e-5,"INCLINATION":42.9967,"RA_OF_ASC_NODE":174.914,"ARG_OF_PERICENTER":294.8592,"MEAN_ANOMALY":65.2168,"EPHEMERIS_TYPE":0,"CLASSIFICATION_TYPE":"U","NORAD_CAT_ID":61965,"ELEMENT_SET_NO":999,"REV_AT_EPOCH":7493,"BSTAR":0.0011939396,"MEAN_MOTION_DOT":0.00032758,"MEAN_MOTION_DDOT":0}]
